STARLINK-4621           
1 53676U 22105AE  22272.91667824 -.01256905  00000+0 -33364-1 0  9994
2 53676  97.6549 152.2462 0002060 121.8633  88.8190 15.41301299  1306
STARLINK-4579           
1 53677U 22105AF  22272.91667824 -.01242974  00000+0 -33336-1 0  9995
2 53677  97.6548 152.2486 0002287 134.3824  69.6170 15.40956115  1301
STARLINK-4418           
1 53678U 22105AG  22272.91667824 -.01232260  00000+0 -32373-1 0  9993
2 53678  97.6548 152.2466 0002287 131.8813  83.8003 15.41549768  1306
STARLINK-4632           
1 53679U 22105AH  22272.91667824 -.01207109  00000+0 -32116-1 0  9993
2 53679  97.6549 152.2466 0002013 123.4116  84.4658 15.41111950  1309
STARLINK-4630           
1 53680U 22105AJ  22272.91667824 -.01228319  00000+0 -32263-1 0  9994
2 53680  97.6549 152.2435 0002171 132.8388  84.0299 15.41547246  1305
STARLINK-4424           
1 53681U 22105AK  22272.91667824 -.01242987  00000+0 -32779-1 0  9994
2 53681  97.6548 152.2457 0001995 117.4888  96.2816 15.41464533  1303
STARLINK-4438           
1 53682U 22105AL  22272.91667824 -.01237496  00000+0 -32368-1 0  9998
2 53682  97.6549 152.2415 0002167 130.9734  89.0466 15.41694936  1304
STARLINK-4625           
1 53683U 22105AM  22272.91667824 -.01237614  00000+0 -32523-1 0  9994
2 53683  97.6549 152.2449 0002318 132.2889  83.9838 15.41553833  1302
STARLINK-4624           
1 53684U 22105AN  22272.91667824 -.01207891  00000+0 -39783-1 0  9994
2 53684  97.6553 152.3052 0002151 123.0516 105.7265 15.34562749  1304
STARLINK-4626           
1 53685U 22105AP  22272.91667824 -.01237936  00000+0 -32518-1 0  9997
2 53685  97.6549 152.2418 0002360 135.0702  82.5583 15.41566623  1305
STARLINK-4467           
1 53686U 22105AQ  22272.91667824 -.01234653  00000+0 -32132-1 0  9993
2 53686  97.6548 152.2409 0002129 123.8121  99.3977 15.41838399  1303
STARLINK-4569           
1 53687U 22105AR  22272.91667824 -.01264177  00000+0 -32954-1 0  9990
2 53687  97.6549 152.2423 0002286 133.0127  89.5943 15.41859604  1300
STARLINK-4571           
1 53688U 22105AS  22272.91667824 -.01228332  00000+0 -31620-1 0  9993
2 53688  97.6549 152.2399 0002227 129.9919  98.6457 15.42148605  1305
STARLINK-4562           
1 53689U 22105AT  22272.91667824 -.01249920  00000+0 -32301-1 0  9997
2 53689  97.6549 152.2408 0002209 130.3301  96.6479 15.42084755  1305
STARLINK-4570           
1 53690U 22105AU  22272.91667824 -.01253477  00000+0 -31937-1 0  9995
2 53690  97.6549 152.2409 0002126 144.8240  89.5409 15.42516168  1300
STARLINK-4560           
1 53691U 22105AV  22272.91667824 -.01230765  00000+0 -31573-1 0  9997
2 53691  97.6549 152.2391 0002067 126.8252 103.8369 15.42259130  1306
STARLINK-4572           
1 53692U 22105AW  22272.91667824 -.01267102  00000+0 -32102-1 0  9992
2 53692  97.6548 152.2406 0002253 134.2038 103.1485 15.42715845  1307
STARLINK-4566           
1 53693U 22105AX  22272.91667824 -.01235342  00000+0 -31128-1 0  9991
2 53693  97.6550 152.2397 0002305 135.5336 103.7623 15.42800552  1303
FALCON 9 DEB            
1 53694U 22105AY  22272.60034568  .00311598  41138-4  73102-3 0  9998
2 53694  97.6707 153.1920 0011233 158.6546 201.5201 15.96805990  4671
FALCON 9 DEB            
1 53695U 22105AZ  22272.40236314  .00291472  36489-4  65919-3 0  9998
2 53695  97.6642 152.9814 0009331 149.4543 210.7278 15.97514841  4646
FALCON 9 DEB            
1 53696U 22105BA  22272.31183853  .00370966  60603-4  71990-3 0  9995
2 53696  97.6552 152.9355 0013352 141.8983 218.3241 16.00153963  4631
FALCON 9 DEB            
1 53697U 22105BB  22272.49612841  .00397335  69570-4  77149-3 0  9992
2 53697  97.6557 153.1541 0012236 135.8977 224.3279 16.00173445  4661
YAOGAN-33 02            
1 53698U 22106A   22272.81270635  .00000114  00000+0  33968-4 0  9997
2 53698  98.1879 278.6436 0000753 105.0371 255.0903 14.59138643  3925
CZ-4C R/B               
1 53699U 22106B   22272.93628989  .00002420  00000+0  20412-3 0  9991
2 53699  98.2023 280.1593 0143605 323.2896  35.8547 14.91564974  4015
STARLINK-4725           
1 53700U 22107A   22272.91667824  .00039433  00000+0  28451-3 0  9999
2 53700  53.2135 150.2682 0001182 150.1578 168.6232 15.73162959  1309
STARLINK-4711           
1 53701U 22107B   22272.91667824  .00108444  00000+0  76832-3 0  9995
2 53701  53.2133 150.2668 0001181 138.9232 180.3728 15.73164300  1305
STARLINK-4724           
1 53702U 22107C   22272.91667824  .00042785  00000+0  30815-3 0  9992
2 53702  53.2135 150.2645 0001566 151.3901 169.1435 15.73166011  1303
STARLINK-4731           
1 53703U 22107D   22272.91667824  .00038581  00000+0  27846-3 0  9992
2 53703  53.2132 150.2691 0001315 138.6936 179.4354 15.73165064  1301
STARLINK-4714           
1 53704U 22107E   22272.91667824  .00040956  00000+0  29519-3 0  9991
2 53704  53.2135 150.2732 0001210 140.7225 175.6840 15.73169796  1304
STARLINK-4717           
1 53705U 22107F   22272.91667824  .00040310  00000+0  29056-3 0  9992
2 53705  53.2133 150.2716 0001493 137.7399 179.2308 15.73174857  1309
STARLINK-4716           
1 53706U 22107G   22272.91667824  .00040821  00000+0  29425-3 0  9990
2 53706  53.2134 150.2705 0001635 127.0624 190.4964 15.73168033  1302
STARLINK-4667           
1 53707U 22107H   22272.91667824  .00039464  00000+0  28460-3 0  9990
2 53707  53.2132 150.2618 0001605 128.4812 193.2598 15.73173060  1305
STARLINK-4694           
1 53708U 22107J   22272.91667824  .00039457  00000+0  28446-3 0  9997
2 53708  53.2131 150.2654 0001240 130.2744 189.7046 15.73180615  1307
STARLINK-4685           
1 53709U 22107K   22272.91667824  .00042064  00000+0  30314-3 0  9993
2 53709  53.2134 150.2768 0001480 137.3376 177.2860 15.73159888  1306
STARLINK-4696           
1 53710U 22107L   22272.91667824  .00195881  25861-4  52156-3 0  9996
2 53710  53.2102 147.7742 0007449 351.2191 101.2692 15.94172027  1302
STARLINK-4627           
1 53711U 22107M   22272.91667824  .00042160  00000+0  30377-3 0  9992
2 53711  53.2135 150.2779 0001204 143.4671 170.5366 15.73163974  1300
STARLINK-4683           
1 53712U 22107N   22272.91667824  .00041475  00000+0  29884-3 0  9992
2 53712  53.2135 150.2758 0001444 141.1407 173.9666 15.73170875  1304
STARLINK-4698           
1 53713U 22107P   22272.91667824  .00040645  00000+0  29294-3 0  9996
2 53713  53.2133 150.2803 0001632 130.0505 182.7970 15.73173376  1304
STARLINK-4688           
1 53714U 22107Q   22272.91667824  .00041013  00000+0  29551-3 0  9993
2 53714  53.2135 150.2792 0001441 123.9413 189.4740 15.73176239  1301
STARLINK-4686           
1 53715U 22107R   22272.91667824  .00041286  00000+0  29758-3 0  9995
2 53715  53.2134 150.2837 0001557 127.2315 183.8185 15.73164651  1303
STARLINK-4699           
1 53716U 22107S   22272.91667824  .00040593  00000+0  29267-3 0  9991
2 53716  53.2135 150.2829 0001593 124.7204 186.9499 15.73165502  1303
STARLINK-4702           
1 53717U 22107T   22272.51599645  .00231565  32322-4  55331-3 0  9992
2 53717  53.2100 149.7182 0006832 339.3559  20.7194 15.96136872  3985
STARLINK-4695           
1 53718U 22107U   22272.91667824  .00041449  00000+0  29868-3 0  9991
2 53718  53.2133 150.2814 0001440 126.9715 185.2683 15.73168853  1308
STARLINK-4644           
1 53719U 22107V   22272.91667824 -.00524558  98444-4 -14421-2 0  9993
2 53719  53.2102 147.9521 0008021 292.4309  73.9935 15.93117239  1300
STARLINK-4642           
1 53720U 22107W   22272.91667824  .00041843  00000+0  30147-3 0  9994
2 53720  53.2135 150.2852 0001564 127.6184 182.8180 15.73168199  1308
STARLINK-4707           
1 53721U 22107X   22272.91667824  .00040110  00000+0  28925-3 0  9992
2 53721  53.2136 150.2917 0001607 133.7749 173.6564 15.73166055  1308
STARLINK-4700           
1 53722U 22107Y   22272.91667824  .00043563  00000+0  31347-3 0  9990
2 53722  53.2135 150.2892 0001484 134.7190 173.9243 15.73179169  1301
STARLINK-4705           
1 53723U 22107Z   22272.91667824  .00040604  00000+0  29264-3 0  9999
2 53723  53.2135 150.2937 0001721 127.9554 178.3704 15.73174449  1301
STARLINK-4663           
1 53724U 22107AA  22272.91667824  .00040106  00000+0  28927-3 0  9992
2 53724  53.2133 150.2899 0001613 130.1074 177.9500 15.73162261  1308
STARLINK-4704           
1 53725U 22107AB  22272.76770669  .00229628  31943-4  55122-3 0  9998
2 53725  53.2094 148.4444 0006872 340.8110  19.2660 15.96054026  4024
STARLINK-4697           
1 53726U 22107AC  22272.91667824  .00041743  00000+0  30074-3 0  9998
2 53726  53.2135 150.2927 0001232 122.9683 183.8441 15.73170548  1303
STARLINK-4701           
1 53727U 22107AD  22272.91667824  .00038922  00000+0  28096-3 0  9995
2 53727  53.2136 150.2975 0001526 115.1141 189.3506 15.73157348  1303
STARLINK-4640           
1 53728U 22107AE  22272.91667824  .00042373  00000+0  30509-3 0  9993
2 53728  53.2136 150.2963 0001593 132.1235 172.9446 15.73177866  1306
STARLINK-4651           
1 53729U 22107AF  22272.91667824  .00040374  00000+0  29103-3 0  9991
2 53729  53.2135 150.3009 0001731 128.0779 174.6698 15.73172997  1307
STARLINK-4641           
1 53730U 22107AG  22272.91667824  .00043145  00000+0  31012-3 0  9994
2 53730  53.2135 150.2986 0001532 128.3610 175.5494 15.73209308  1309
STARLINK-4636           
1 53731U 22107AH  22272.91667824  .00041012  00000+0  29563-3 0  9994
2 53731  53.2137 150.3038 0001576 125.8212 175.6624 15.73165784  1304
STARLINK-4661           
1 53732U 22107AJ  22272.91667824  .00040234  00000+0  28996-3 0  9999
2 53732  53.2137 150.3002 0001507 129.9836 173.2874 15.73179914  1308
STARLINK-4574           
1 53733U 22107AK  22272.91667824  .00041533  00000+0  29915-3 0  9995
2 53733  53.2134 150.3060 0001308 119.9831 180.3276 15.73178491  1307
STARLINK-4616           
1 53734U 22107AL  22272.91667824  .00039113  00000+0  28227-3 0  9992
2 53734  53.2136 150.3026 0001401 127.6838 174.3882 15.73160803  1303
